STARLINK-31730          
1 59555U 24074X   26068.12455268 -.00002474  00000+0 -80472-4 0  9994
2 59555  43.0030 347.0799 0001145 251.2892 108.7835 15.27556672105925
TRANSPORTER-14 OBJECT AC
1 64554U 25135AC  26068.82113864  .00024574  00000+0  93234-3 0  9990
2 64554  97.4518 185.7428 0001008 268.0523  92.0600 15.26845403 39827
